ESTCUBE 1               
1 39161U 13021C   22316.77294531  .00001958  00000+0  31032-3 0  9993
2 39161  97.8985  30.0864 0008696 313.1888  46.8587 14.73279872511308
FENGYUN 3C              
1 39260U 13052A   22316.87745333  .00000131  00000+0  87151-4 0  9995
2 39260  98.4442 337.4071 0010597 201.8738 158.1980 14.15958907472924
CASSIOPE                
1 39265U 13055A   22316.56813654  .00017723  00000+0  46563-3 0  9997
2 39265  80.9624 109.9227 0607667 238.1630 115.9037 14.42210928473655
ZACUBE-1 (TSHEPISOSAT)  
1 39417U 13066B   22316.50984829  .00003135  00000+0  38207-3 0  9993
2 39417  97.6573 281.5173 0055289 279.5752  79.9218 14.82993625485064
CINEMA-3 (KHUSAT-2)     
1 39426U 13066L   22316.37080392  .00001261  00000+0  19912-3 0  9990
2 39426  97.8112 249.9670 0103891 121.4720 239.6691 14.70470174481004
TRITON-1                
1 39427U 13066M   22316.80892169  .00001551  00000+0  24596-3 0  9998
2 39427  97.8222 246.2361 0111634 149.6482 211.1252 14.69441276480753
DELFI-N3XT              
1 39428U 13066N   22316.35392361  .00002783  00000+0  42650-3 0  9997
2 39428  97.8223 244.4534 0115904 163.9481 196.5449 14.69977276480252
GOMX-1                  
1 39430U 13066Q   22316.72667903  .00003210  00000+0  57553-3 0  9992
2 39430  97.7970 215.3825 0147074 297.6071  61.0240 14.60626042477935
BRITE-PL1 (LEM)         
1 39431U 13066R   22316.51802997  .00000583  00000+0  13211-3 0  9997
2 39431  97.6837 156.9747 0202167 129.5528 232.3725 14.47495063473787
ICUBE-1                 
1 39432U 13066S   22316.49688991  .00003045  00000+0  29686-3 0  9990
2 39432  97.4747 312.6979 0031992 126.9757 233.4399 14.92787154486783
HUMSAT-D                
1 39433U 13066T   22316.55403803  .00005155  00000+0  46643-3 0  9991
2 39433  97.4504 320.5077 0030623 100.9360 259.5309 14.95462751488524
VELOX-PII               
1 39438U 13066Y   22316.38385570  .00002930  00000+0  38467-3 0  9990
2 39438  97.7132 272.8265 0068169 336.2311  23.5757 14.79407616482872
FIRST-MOVE              
1 39439U 13066Z   22316.33908293  .00006877  00000+0  77752-3 0  9993
2 39439  97.6564 284.1774 0059179 273.9071  85.5380 14.85511323483995
CUBEBUG-2 (LO-74)       
1 39440U 13066AA  22316.45814182  .00003411  00000+0  46090-3 0  9993
2 39440  97.7458 267.9644 0078477  12.5464 347.7676 14.77562803482136
NEE-02 KRYSAOR          
1 39441U 13066AB  22316.32219356  .00002429  00000+0  34060-3 0  9994
2 39441  97.7566 264.9233 0080871  27.4331 333.1113 14.76134205481849
FUNCUBE-1 (AO-73)       
1 39444U 13066AE  22316.54831734  .00003480  00000+0  41162-3 0  9990
2 39444  97.6446 283.9871 0053858 266.2719  93.2337 14.84218484483480
HINCUBE                 
1 39445U 13066AF  22316.55234360  .00003248  00000+0  38652-3 0  9996
2 39445  97.6461 283.7947 0053962 268.7169  90.7864 14.84008726483429
UWE-3                   
1 39446U 13066AG  22316.42589776  .00003630  00000+0  46667-3 0  9997
2 39446  97.7065 274.2827 0067055 328.1790  31.5379 14.80173999482347
AIST-1 (RS-41)          
1 39492U 13078C   22316.87659900  .00001897  00000+0  19988-3 0  9996
2 39492  82.4164  94.5819 0019263 338.8278  21.2144 14.88737478481868
SPROUT                  
1 39770U 14029E   22316.81999027  .00014047  00000+0  13477-2 0  9990
2 39770  97.9540  74.9808 0008384 320.3441  39.7157 14.93188472459780
UNISAT-6                
1 40012U 14033C   22316.46627960  .00001701  00000+0  25127-3 0  9990
2 40012  97.6615 136.5877 0057896  40.5489 320.0012 14.75344136451809
BUGSAT-1 (TITA)         
1 40014U 14033E   22316.59132765  .00002320  00000+0  20360-3 0  9992
2 40014  98.1470 321.1434 0028736 267.3892  92.4024 14.97390842458309
DUCHIFAT-1              
1 40021U 14033M   22316.42304809  .00006709  00000+0  63338-3 0  9999
2 40021  98.0313 269.5297 0010059 273.6073  86.3995 14.94049338456781
NANOSATC-BR1            
1 40024U 14033Q   22316.54964903  .00004784  00000+0  46896-3 0  9993
2 40024  98.0022 262.2130 0009721 282.2954  77.7176 14.92703770456066
QB50P1                  
1 40025U 14033R   22316.79108209  .00004274  00000+0  43448-3 0  9994
2 40025  97.9735 255.4836 0010236 293.1527  66.8611 14.91305115456370
DTUSAT-2                
1 40030U 14033W   22316.49831235  .00003958  00000+0  40894-3 0  9999
2 40030  97.9473 249.9676 0009799 290.4765  69.5400 14.90689606455690
QB50P2                  
1 40032U 14033Y   22316.80872673  .00003161  00000+0  32801-3 0  9992
2 40032  97.9475 250.2954 0009865 290.4650  69.5508 14.90671952456230
POLYITAN-1              
1 40042U 14033AJ  22316.79668121  .00005027  00000+0  50719-3 0  9993
2 40042  97.9845 256.8996 0012168 283.6420  76.3443 14.91506319456261
TIGRISAT                
1 40043U 14033AK  22316.50675355  .00001387  00000+0  20589-3 0  9997
2 40043  97.6554 137.8295 0059752  37.7371 322.8007 14.75358478451453
AISAT                   
1 40054U 14034B   22316.56667852  .00004090  00000+0  54066-3 0  9990
2 40054  98.3656 134.0788 0011807 196.8886 163.1933 14.80533000451387
CANX-4                  
1 40055U 14034C   22316.44119166  .00001292  00000+0  19685-3 0  9997
2 40055  98.3724 118.4093 0012988 245.4003 114.5852 14.75695666450540
CANX-5                  
1 40056U 14034D   22316.44811034  .00001306  00000+0  19899-3 0  9994
2 40056  98.3725 118.3961 0012996 245.4642 114.5211 14.75693150441357
VELOX-I                 
1 40057U 14034E   22316.70272360  .00004116  00000+0  55362-3 0  9994
2 40057  98.3709 135.3068 0009945 211.4991 148.5600 14.79805610451391
METEOR-M 2              
1 40069U 14037A   22316.71294512  .00000052  00000+0  43187-4 0  9992
2 40069  98.4287 327.7323 0004621 248.7459 111.3217 14.20726248432919
DX1                     
1 40071U 14037C   22316.67440255  .00001665  00000+0  21645-3 0  9992
2 40071  98.3845 192.6151 0007898 192.7538 167.3455 14.82131891451293
UKUBE-1                 
1 40074U 14037F   22316.65878915  .00004193  00000+0  48584-3 0  9991
2 40074  98.3614 204.9591 0004686 152.2941 207.8507 14.86055943452078
FIREBIRD 3              
1 40377U 15003B   22316.29548083  .00033475  00000+0  84559-3 0  9998
2 40377  99.0775 214.6037 0085874 241.9457 117.3078 15.35968200431056
FIREBIRD 4              
1 40378U 15003C   22316.37628772  .00033717  00000+0  84899-3 0  9998
2 40378  99.0787 214.9525 0085805 241.1062 118.1549 15.36067092431077
GRIFEX                  
1 40379U 15003D   22316.64802639  .00019145  00000+0  61780-3 0  9998
2 40379  99.0874 199.3567 0106086 289.4785  69.5012 15.26838031430216
CP10 (EXOCUBE)          
1 40380U 15003E   22316.59063408  .00014206  00000+0  51283-3 0  9997
2 40380  99.0982 191.2955 0116673 316.7394  42.4718 15.22371782429675
DEORBITSAIL             
1 40719U 15032E   22316.57115472  .00003305  00000+0  45192-3 0  9992
2 40719  97.7587 189.8620 0014164 242.4319 117.5455 14.79139961395770
NUDT-PHONESAT           
1 40900U 15049B   22316.16449826  .00066828  00000+0  13650-2 0  9992
2 40900  97.3889 335.6960 0010474 109.0269 319.5546 15.45880830397345
XW-2A                   
1 40903U 15049E   22316.89022959  .00045276  00000+0  52303-3 0  9992
2 40903  97.1585  16.1596 0006141 287.0854 190.1702 15.61753167402353
XW-2C                   
1 40906U 15049H   22316.93117433  .00009450  00000+0  43045-3 0  9999
2 40906  97.4963 319.3434 0012488 192.3216 232.0408 15.20824477395470
XW-2D                   
1 40907U 15049J   22316.88423260  .00010901  00000+0  48301-3 0  9995
2 40907  97.4951 319.4246 0011983 186.9491 257.4390 15.21739133395525
LILACSAT-2              
1 40908U 15049K   22316.91182506  .00005341  00000+0  27485-3 0  9997
2 40908  97.5222 316.1596 0013705 216.4777 206.2037 15.16777164394989
XW-2E                   
1 40909U 15049L   22316.82920444  .00017353  00000+0  66180-3 0  9990
2 40909  97.4634 324.2896 0011748 162.5413 197.5997 15.26682513396020
XW-2F                   
1 40910U 15049M   22316.89026294  .00017182  00000+0  66588-3 0  9991
2 40910  97.4724 323.5233 0013081 164.5161 280.7378 15.26136777395790
XW-2B                   
1 40911U 15049N   22316.91732240  .00010810  00000+0  48086-3 0  9994
2 40911  97.4931 320.0058 0012048 187.7703 235.6703 15.21604956395413
KAITUO 1B               
1 40912U 15049P   22316.84376334  .00019845  00000+0  68938-3 0  9990
2 40912  97.4330 327.8309 0013741 131.3848 351.9600 15.29699954396405
TIANWANG 1A (TW-1A)     
1 40928U 15051D   22316.87906660  .00176454  00000+0  86173-3 0  9995
2 40928  97.0177 339.7062 0006590 158.2929 325.3905 15.81823311401489
LAPAN-A2                
1 40931U 15052B   22316.54805855  .00001262  00000+0  86112-4 0  9996
2 40931   5.9958 192.5679 0012615 103.8541 256.3038 14.76917898385273
LQSAT                   
1 40958U 15057A   22316.72020481  .00000784  00000+0  12768-3 0  9997
2 40958  97.7330 356.1685 0017390 198.5834 161.4738 14.73501036381810
ATHENOXAT 1             
1 41168U 15077C   22316.98059970  .00028583  00000+0  10439-2 0  9995
2 41168  14.9828  66.3347 0008458 171.7102 333.1991 15.25921473382985
GALASSIA                
1 41170U 15077E   22316.59239731  .00018700  00000+0  71631-3 0  9992
2 41170  14.9883  61.9052 0009930 192.0306 167.9780 15.23900988382829
VELOX-II                
1 41171U 15077F   22316.67512374  .00012365  00000+0  54862-3 0  9997
2 41171  14.9896 142.9045 0007538  19.0635 340.9968 15.18346324382217
CHUBUSAT-2              
1 41338U 16012B   22316.56602493  .00002827  00000+0  20384-3 0  9996
2 41338  31.0013 160.4570 0012892 183.9610 176.0925 15.02013810369764
CHUBUSAT-3              
1 41339U 16012C   22316.69809635  .00003501  00000+0  25383-3 0  9992
2 41339  31.0101 156.5268 0012421 192.2764 232.9986 15.02044873369788
HORYU-4                 
1 41340U 16012D   22316.19725600  .00005472  00000+0  37585-3 0  9994
2 41340  31.0029 134.9526 0012682 233.7238 126.2227 15.04396880369987
